KUIPER-00016            
1 63732U 25088J   25288.58837012  .00004512  00000+0  62016-3 0  9992
2 63732  51.9012  33.2293 0010874 306.8234  53.1730 14.79933166 25846
KUIPER-00018            
1 63733U 25088K   25288.63578202  .00005586  00000+0  81388-3 0  9997
2 63733  51.9009  21.6313 0012383 334.2442  25.7901 14.77027830 26015
KUIPER-00019            
1 63734U 25088L   25288.53425405  .00006640  00000+0  89861-3 0  9999
2 63734  51.9002  20.9730 0009132 348.6735  11.4020 14.79945152 26018
KUIPER-00020            
1 63735U 25088M   25288.53073735 -.00013194  00000+0 -17064-2 0  9994
2 63735  51.9007  24.9626 0008088 320.9320  39.1057 14.79868898 26168
KUIPER-00021            
1 63736U 25088N   25288.52892000 -.00000659  00000+0 -57184-4 0  9999
2 63736  51.9032  25.9715 0005804 322.9752  37.0809 14.79959410 25983
KUIPER-00023            
1 63737U 25088P   25288.46046632  .00005489  00000+0  74779-3 0  9997
2 63737  51.9030  27.7441 0011450 339.4367  20.6133 14.79947227 26259
KUIPER-00024            
1 63738U 25088Q   25288.52073669  .00003175  00000+0  45207-3 0  9999
2 63738  51.9046  14.7974 0004157 340.1208  19.9592 14.79287547 26569
KUIPER-00025            
1 63739U 25088R   25288.53165739  .00006037  00000+0  82011-3 0  9995
2 63739  51.9015  23.4893 0008328 320.9878  39.0483 14.79923975 26302
